H1 CPF  1  HTS 2022  2 26 12  5571 larets           NONE
H2  0304206 5557    27944 2022 02 26  0  0  0 2022 03 03  0  0  0   180 1 1  0 0 0
H5  0.0560 
H9 
10 0 59638  21960.00000  0   -2109425.566    1856712.033    6478065.741
10 0 59638  22140.00000  0   -2577849.760    2978397.349    5860918.939
10 0 59638  22320.00000  0   -2924589.324    4002729.640    5029605.568
10 0 59638  22500.00000  0   -3140046.869    4889079.355    4014316.352
10 0 59638  22680.00000  0   -3220374.902    5601579.500    2852038.871
10 0 59638  22860.00000  0   -3167501.172    6110624.871    1585236.451
10 0 59638  23040.00000  0   -2988905.381    6394150.484     260297.188
10 0 59638  23220.00000  0   -2697153.987    6438626.407   -1074190.594
10 0 59638  23400.00000  0   -2309214.233    6239708.368   -2369273.221
10 0 59638  23580.00000  0   -1845574.635    5802491.655   -3577488.897
10 0 59638  23760.00000  0   -1329225.805    5141364.641   -4654642.334
10 0 59638  23940.00000  0    -784563.980    4279483.427   -5561431.283
10 0 59638  24120.00000  0    -236270.128    3247900.863   -6264864.183
10 0 59638  24300.00000  0     291785.179    2084391.166   -6739424.863
10 0 59638  24480.00000  0     777559.164     832027.917   -6967945.910
10 0 59638  24660.00000  0    1201737.287    -462421.819   -6942184.452
10 0 59638  24840.00000  0    1548487.793   -1750237.215   -6663091.561
10 0 59638  25020.00000  0    1806045.099   -2982557.161   -6140774.029
10 0 59638  25200.00000  0    1967109.525   -4112217.320   -5394160.153
10 0 59638  25380.00000  0    2029049.363   -5095564.751   -4450361.390
10 0 59638  25560.00000  0    1993896.437   -5894171.506   -3343733.308
10 0 59638  25740.00000  0    1868133.866   -6476386.215   -2114663.494
10 0 59638  25920.00000  0    1662280.509   -6818650.620    -808109.115
10 0 59638  26100.00000  0    1390291.622   -6906507.698     528065.291
10 0 59638  26280.00000  0    1068803.840   -6735241.787    1844882.174
10 0 59638  26460.00000  0     716261.982   -6310115.284    3094097.074
10 0 59638  26640.00000  0     351974.627   -5646181.858    4230011.952
10 0 59638  26820.00000  0      -4852.866   -4767697.185    5211165.708
10 0 59638  27000.00000  0    -336054.156   -3707167.224    6001839.941
10 0 59638  27180.00000  0    -625360.421   -2504082.134    6573327.966
10 0 59638  27360.00000  0    -859145.075   -1203401.386    6904924.566
10 0 59638  27540.00000  0   -1027026.503     146137.309    6984626.265
10 0 59638  27720.00000  0   -1122309.051    1493837.077    6809536.696
10 0 59638  27900.00000  0   -1142244.982    2788929.058    6385964.855
10 0 59638  28080.00000  0   -1088110.233    3982468.698    5729218.070
10 0 59638  28260.00000  0    -965093.265    5029184.867    4863091.323
10 0 59638  28440.00000  0    -781999.529    5889222.478    3819057.853
10 0 59638  28620.00000  0    -550781.828    6529709.473    2635170.612
10 0 59638  28800.00000  0    -285916.809    6926085.016    1354702.831
10 0 59638  28980.00000  0      -3646.811    7063111.983      24555.614
10 0 59638  29160.00000  0     278873.336    6935513.205   -1306492.890
10 0 59638  29340.00000  0     544477.887    6548194.343   -2589629.209
10 0 59638  29520.00000  0     776887.107    5916034.748   -3777844.787
10 0 59638  29700.00000  0     961557.608    5063269.514   -4827692.124
10 0 59638  29880.00000  0    1086444.043    4022494.409   -5700883.943
10 0 59638  30060.00000  0    1142632.982    2833351.242   -6365670.311
10 0 59638  30240.00000  0    1124818.943    1540962.504   -6797951.203
10 0 59638  30420.00000  0    1031605.425     194190.465   -6982096.760
10 0 59638  30600.00000  0     865621.655   -1156212.887   -6911469.573
10 0 59638  30780.00000  0     633450.227   -2459504.185   -6588638.047
10 0 59638  30960.00000  0     345371.208   -3666831.447   -6025288.757
10 0 59638  31140.00000  0      14927.522   -4733059.817   -5241839.864
10 0 59638  31320.00000  0    -341672.934   -5618475.381   -4266747.563
10 0 59638  31500.00000  0    -706299.206   -6290307.058   -3135521.262
10 0 59638  31680.00000  0   -1059754.764   -6724001.384   -1889462.754
10 0 59638  31860.00000  0   -1382712.036   -6904188.140    -574165.366
10 0 59638  32040.00000  0   -1656677.699   -6825280.078     762178.041
10 0 59638  32220.00000  0   -1864939.524   -6491667.343    2070584.022
10 0 59638  32400.00000  0   -1993444.674   -5917494.384    3303124.434
10 0 59638  32580.00000  0   -2031559.628   -5126028.655    4414723.606
10 0 59638  32760.00000  0   -1972672.078   -4148662.363    5364822.339
10 0 59638  32940.00000  0   -1814610.773   -3023608.634    6118846.507
10 0 59638  33120.00000  0   -1559863.188   -1794354.372    6649429.688
10 0 59638  33300.00000  0   -1215583.303    -507951.709    6937354.669
10 0 59638  33480.00000  0    -793398.311     786787.618    6972202.112
10 0 59638  33660.00000  0    -309019.031    2041130.208    6752698.322
10 0 59638  33840.00000  0     218339.815    3208237.460    6286760.967
10 0 59638  34020.00000  0     766709.105    4244903.775    5591237.711
10 0 59638  34200.00000  0    1312259.599    5113164.826    4691342.613
10 0 59638  34380.00000  0    1830313.604    5781721.507    3619793.699
10 0 59638  34560.00000  0    2296436.274    6227123.344    2415670.384
10 0 59638  34740.00000  0    2687561.887    6434660.995    1123005.822
10 0 59638  34920.00000  0    2983093.700    6398903.934    -210840.846
10 0 59638  35100.00000  0    3165920.433    6123851.738   -1536956.441
10 0 59638  35280.00000  0    3223298.922    5622693.276   -2806715.364
10 0 59638  35460.00000  0    3147554.290    4917182.428   -3973611.697
10 0 59638  35640.00000  0    2936557.338    4036660.115   -4994996.575
10 0 59638  35820.00000  0    2593956.400    3016784.417   -5833640.774
10 0 59638  36000.00000  0    2129160.535    1898038.515   -6459067.991
10 0 59638  36180.00000  0    1557078.068     724088.588   -6848616.490
10 0 59638  36360.00000  0     897627.920    -459932.009   -6988206.840
10 0 59638  36540.00000  0     175039.005   -1609150.858   -6872811.157
10 0 59638  36720.00000  0    -583036.593   -2680638.563   -6506613.019
10 0 59638  36900.00000  0   -1346568.427   -3634995.779   -5902869.315
10 0 59638  37080.00000  0   -2084321.791   -4437803.070   -5083466.178
10 0 59638  37260.00000  0   -2765122.890   -5060884.639   -4078177.423
10 0 59638  37440.00000  0   -3359173.300   -5483340.295   -2923628.718
10 0 59638  37620.00000  0   -3839354.470   -5692294.082   -1661991.163
10 0 59638  37800.00000  0   -4182463.324   -5683323.888    -339443.317
10 0 59638  37980.00000  0   -4370312.701   -5460542.188     995546.574
10 0 59638  38160.00000  0   -4390634.821   -5036316.830    2294044.151
10 0 59638  38340.00000  0   -4237737.913   -4430641.896    3508493.901
10 0 59638  38520.00000  0   -3912882.602   -3670196.536    4594496.763
10 0 59638  38700.00000  0   -3424362.511   -2787145.371    5512445.817
10 0 59638  38880.00000  0   -2787290.165   -1817746.969    6228951.429
10 0 59638  39060.00000  0   -2023106.835    -800845.983    6718017.128
10 0 59638  39240.00000  0   -1158836.173     223693.623    6961936.734
10 0 59638  39420.00000  0    -226115.820    1216544.339    6951884.927
10 0 59638  39600.00000  0     739953.314    2140406.981    6688211.878
10 0 59638  39780.00000  0    1702114.052    2961399.602    6180433.805
10 0 59638  39960.00000  0    2622373.776    3650295.544    5446918.281
10 0 59638  40140.00000  0    3463496.979    4183578.491    4514270.343
10 0 59638  40320.00000  0    4190518.304    4544273.446    3416417.750
10 0 59638  40500.00000  0    4772216.361    4722522.087    2193419.775
10 0 59638  40680.00000  0    5182482.992    4715869.573     890015.697
10 0 59638  40860.00000  0    5401512.188    4529241.661    -446027.876
10 0 59638  41040.00000  0    5416744.700    4174605.546   -1765712.014
10 0 59638  41220.00000  0    5223511.370    3670329.825   -3020653.637
10 0 59638  41400.00000  0    4825346.568    3040279.747   -4164904.219
10 0 59638  41580.00000  0    4233954.362    2312699.625   -5156660.279
10 0 59638  41760.00000  0    3468833.606    1518937.817   -5959791.075
10 0 59638  41940.00000  0    2556588.622     692085.212   -6545125.504
10 0 59638  42120.00000  0    1529961.681    -134406.553   -6891463.047
10 0 59638  42300.00000  0     426636.756    -928070.124   -6986290.289
10 0 59638  42480.00000  0    -712147.577   -1658684.863   -6826196.286
10 0 59638  42660.00000  0   -1843126.876   -2299411.896   -6416980.625
10 0 59638  42840.00000  0   -2922637.455   -2827773.256   -5773459.556
10 0 59638  43020.00000  0   -3908290.211   -3226444.406   -4918969.777
10 0 59638  43200.00000  0   -4760644.761   -3483838.067   -3884575.290
10 0 59638  43380.00000  0   -5444816.546   -3594451.298   -2707981.136
10 0 59638  43560.00000  0   -5931946.327   -3558958.204   -1432182.776
10 0 59638  43740.00000  0   -6200458.514   -3384038.977    -103890.505
10 0 59638  43920.00000  0   -6237040.928   -3081949.535    1228210.304
10 0 59638  44100.00000  0   -6037290.070   -2669850.918    2515292.829
10 0 59638  44280.00000  0   -5605978.111   -2168930.360    3710229.206
10 0 59638  44460.00000  0   -4956936.152   -1603365.608    4769350.102
10 0 59638  44640.00000  0   -4112560.299    -999185.830    5654047.345
10 0 59638  44820.00000  0   -3102983.276    -383094.698    6332156.147
10 0 59638  45000.00000  0   -1964951.127     218693.055    6779085.352
10 0 59638  45180.00000  0    -740451.820     781548.640    6978657.618
10 0 59638  45360.00000  0     524839.996    1283417.250    6923650.481
10 0 59638  45540.00000  0    1783252.203    1705669.837    6616036.948
10 0 59638  45720.00000  0    2986890.992    2033790.420    6066921.824
10 0 59638  45900.00000  0    4089450.963    2257876.335    5296175.823
10 0 59638  46080.00000  0    5048003.348    2372937.608    4331767.000
10 0 59638  46260.00000  0    5824698.670    2378986.584    3208800.418
99
